STEP CUBE LAB           
1 43138U 18004AD  21003.90603127  .00002337  00000-0  93576-4 0  9995
2 43138  97.4295  80.8023 0010110  72.5628 287.6714 15.26020057165657
XIAOXIANG-2             
1 43155U 18008A   21003.83436483  .00001179  00000-0  72087-4 0  9996
2 43155  97.4251  73.6004 0017571 172.2473 295.0657 15.12034957163196
ZHOU ENLAI              
1 43156U 18008B   21003.85760604  .00001920  00000-0  11649-3 0  9994
2 43156  97.4295  73.4601 0014972 170.5190 300.9111 15.11612941163145
QUANTUTONG 1            
1 43158U 18008D   21003.74758095  .00001237  00000-0  77491-4 0  9994
2 43158  97.4231  72.1545 0013547 169.8155 339.3009 15.11094206163060
S-NET D                 
1 43186U 18014G   21003.72508421 -.00000176  00000-0 -10299-4 0  9992
2 43186  97.6866 274.1844 0009699 275.8294  84.1822 14.96939422159656
S-NET B                 
1 43187U 18014H   21003.85864019 -.00000171  00000-0 -98683-5 0  9994
2 43187  97.6863 274.2878 0009700 275.1787  84.8328 14.96939026159675
S-NET A                 
1 43188U 18014J   21003.72486372 -.00000183  00000-0 -10850-4 0  9995
2 43188  97.6866 274.1940 0009678 275.9249  84.0870 14.96937795159656
S-NET C                 
1 43189U 18014K   21003.72535777 -.00000165  00000-0 -93352-5 0  9999
2 43189  97.6861 274.1507 0009688 275.7070  84.3047 14.96937816158205
FENGMANIU-1 (FMN-1)     
1 43192U 18015A   21003.85488284  .00004169  00000-0  16060-3 0  9993
2 43192  97.4669 138.8370 0016495 102.4750  47.2583 15.26791065162466
SHAONIAN XING           
1 43199U 18015H   21003.84323428  .00003035  00000-0  11814-3 0  9990
2 43199  97.4460 136.5397 0017752 111.8300  39.2702 15.26640538162527
UBAKUSAT                
1 43467U 98067NQ  20362.27906033  .06269310  12352-4  52456-3 0  9996
2 43467  51.6190 354.3668 0001241 137.3285 222.7838 16.38845679150702
LUOJIA-1 01             
1 43485U 18048B   21003.82411929  .00000254  00000-0  43564-4 0  9994
2 43485  97.9768  87.6403 0012611 105.8071 254.4523 14.76774119139693
EQUISAT                 
1 43552U 98067PA  20361.21801847  .10316869  12478-4  50011-3 0  9992
2 43552  51.6122   8.3673 0000676 209.2273 150.8717 16.43170683140619
RADSAT-G                
1 43553U 98067PB  21003.87773748  .00066165  00000-0  29546-3 0  9990
2 43553  51.6378 347.4120 0005838 103.5908 256.5746 15.83586551141720
SIRIUSSAT-1             
1 43595U 98067PG  20344.55055662  .07916525  12514-4  56251-3 0  9997
2 43595  51.6588  97.6693 0009437  42.2825  52.9592 16.39998780132780
SIRIUSSAT-2             
1 43596U 98067PH  20344.36554324  .08904132  12494-4  57179-3 0  9995
2 43596  51.6062  99.6513 0006261 312.7483  99.6145 16.40921535132742
SURFSAT                 
1 43614U 18070B   21003.90088765  .00003673  00000-0  90248-4 0  9999
2 43614  93.0257 237.6602 0011901 286.0080  73.9864 15.40643727129321
CP7 (DAVE)              
1 43615U 18070C   21003.89044899  .00003521  00000-0  87178-4 0  9998
2 43615  93.0260 237.6315 0012064 285.6019  74.3904 15.40415230129310
ELFIN-B                 
1 43616U 18070D   21003.91544951  .00005528  00000-0  12771-3 0  9991
2 43616  93.0218 237.6751 0012143 285.8095  74.1821 15.42471823129398
ELFIN-A                 
1 43617U 18070E   21003.91682712  .00005552  00000-0  12695-3 0  9992
2 43617  93.0271 238.3655 0011483 281.9737  78.0231 15.42791963129405
1998-067PP              
1 43639U 98067PP  21003.69111589  .00083599  00000-0  33681-3 0  9999
2 43639  51.6300 354.1449 0005924  79.8082 280.3590 15.85648497128348
STARS-ME                
1 43640U 98067PQ  21003.72658853  .00032413  00000-0  21716-3 0  9990
2 43640  51.6339   7.1981 0005275  67.1310 293.0246 15.74935614128179
CZ-4B R/B               
1 43656U 18081B   21003.82183995  .00000009  00000-0  20721-4 0  9998
2 43656  99.3704  91.4110 0208049 226.1030 132.2808 14.30449660114637
CUBEBEL-1 (BSUSAT-1)    
1 43666U 18083E   21003.89824058  .00001778  00000-0  88597-4 0  9999
2 43666  97.4720  34.2436 0015506  28.2143  73.4978 15.18785603121034
CHANGSHAGAOXIN (TY 4-01)
1 43669U 18083H   21003.84158272  .00001204  00000-0  62987-4 0  9994
2 43669  97.4609  31.7662 0011409  25.1808 148.3015 15.17703985120910
TEN-KOH                 
1 43677U 18084G   21003.90448022  .00000161  00000-0  22408-4 0  9991
2 43677  97.9020 126.7535 0015271 213.0647 146.9618 14.90380155118791
DIWATA-2B               
1 43678U 18084H   21003.84460856  .00000548  00000-0  60207-4 0  9992
2 43678  97.9047 128.5183 0008869 229.7122 130.3327 14.91697462118895
STARS-AO                
1 43679U 18084J   21003.90071944  .00000467  00000-0  51356-4 0  9991
2 43679  97.9084 129.5376 0008021 237.0229 123.0219 14.92369356118946
AUTCUBE 2               
1 43681U 18084K   21003.88505396  .00000498  00000-0  54909-4 0  9995
2 43681  97.9052 128.8069 0008432 229.7175 130.3307 14.91970893118873
IRVINE01                
1 43693U 18088D   21003.84020567  .00004147  00000-0  16821-3 0  9995
2 43693  85.0352 304.2556 0014486 275.1748  84.7842 15.24203125119359
ES'HAIL 2               
1 43700U 18090A   21003.82587396  .00000154  00000-0  00000-0 0  9996
2 43700   0.0181  41.0415 0001694 278.7843 106.9381  1.00269522  7710
FACSAT-1                
1 43721U 18096C   21003.81913209  .00003064  00000-0  11421-3 0  9995
2 43721  97.4033  82.1806 0018362 131.5067   9.0243 15.28056185116976
CENTAURI-2              
1 43722U 18096D   21003.86794037  .00003068  00000-0  11165-3 0  9996
2 43722  97.4044  82.7347 0018292 130.7510 229.5321 15.28849566117005
3CAT-1                  
1 43728U 18096K   21003.85537304  .00003794  00000-0  13613-3 0  9999
2 43728  97.4054  83.1983 0018119 134.7736   3.1614 15.29162065117021
INNOSAT-2               
1 43738U 18096V   21003.93784903  .00005243  00000-0  17160-3 0  9990
2 43738  97.4085  85.6788 0023706 135.1403 279.9087 15.31853698117209
REAKTOR HELLO WORLD     
1 43743U 18096AA  21003.86227180  .00001817  00000-0  68765-4 0  9998
2 43743  97.4032  82.5803 0018704 135.9912 224.2821 15.28094018116999
ELYSIUM STAR 2 & LFF    
1 43760U 18099C   21003.80271258  .00000874  00000-0  83017-4 0  9998
2 43760  97.6889  78.2540 0012998 234.0784 125.9226 14.95986352113893
2018-099D               
1 43761U 18099D   21003.72550409 -.00000239  00000-0 -16517-4 0  9996
2 43761  97.6864  77.8032 0013359 238.3213 121.6710 14.95213799113859
AISTECHSAT 2            
1 43768U 18099L   21003.77048906 -.00000074  00000-0 -16022-5 0  9991
2 43768  97.6838  76.9345 0010261 235.5474 124.4777 14.94789288113541
FOX-1CLIFF (AO-95)      
1 43770U 18099N   21003.75884246  .00000510  00000-0  51613-4 0  9994
2 43770  97.6861  77.4320 0013153 245.6002 114.3846 14.95160495113843
RANGE-A                 
1 43772U 18099Q   21003.75072222  .00001034  00000-0  98678-4 0  9993
2 43772  97.6937  78.1797 0013019 231.0531 128.9530 14.95407547113845
RANGE-B                 
1 43773U 18099R   21003.62092589  .00000508  00000-0  51539-4 0  9998
2 43773  97.6800  76.7748 0012325 231.7052 128.3061 14.95095343113816
2018-099T               
1 43775U 18099T   21003.63068088  .00000141  00000-0  17995-4 0  9999
2 43775  97.6865  77.5115 0013361 236.6631 123.3311 14.95181255113826
MOVE-II                 
1 43780U 18099Y   21003.78149517  .00000276  00000-0  29940-4 0  9990
2 43780  97.6869  77.8185 0012341 242.3785 117.6183 14.95666180113858
SNUSAT-2                
1 43782U 18099AA  21003.75193457  .00000770  00000-0  74795-4 0  9998
2 43782  97.6859  77.7087 0011578 229.8011 130.2197 14.95415602113859
SNUGLITE                
1 43784U 18099AC  21003.77329675 -.00000024  00000-0  30535-5 0  9993
2 43784  97.6823  77.5003 0013849 239.5718 120.4135 14.95525451113872
ITASAT 1                
1 43786U 18099AE  21003.77854062 -.00000090  00000-0 -29539-5 0  9994
2 43786  97.6877  78.0142 0013982 238.7765 121.2086 14.95475030113875
KAZSCISAT-1             
1 43787U 18099AF  21003.74888740  .00001127  00000-0  10580-3 0  9996
2 43787  97.6788  77.2465 0012958 234.6691 125.3319 14.95862456113888
EAGLET-I                
1 43790U 18099AJ  21003.78657852  .00000012  00000-0  61947-5 0  9999
2 43790  97.6864  78.3652 0012328 242.8704 117.1260 14.95851892113598
ESEO                    
1 43792U 18099AL  21003.74861808  .00000619  00000-0  60779-4 0  9999
2 43792  97.6839  78.0392 0011946 238.9152 121.0898 14.95672628113643
CSIM-FD                 
1 43793U 18099AM  21003.78892846  .00000432  00000-0  43248-4 0  9995
2 43793  97.6846  78.2310 0012116 235.2527 124.7554 14.96321878113648
ASTROCAST 0.1           
1 43798U 18099AS  21003.68852491  .00000754  00000-0  72319-4 0  9999
2 43798  97.6870  78.4126 0011383 219.3881 140.6513 14.96004885113882
JY1SAT (JO-97)          
1 43803U 18099AX  21003.76758638  .00000183  00000-0  21608-4 0  9994
2 43803  97.6841  77.7794 0013857 238.8287 121.1576 14.95688578113872
SUOMI-100               
1 43804U 18099AY  21003.77037503  .00000056  00000-0  10238-4 0  9993
2 43804  97.6838  77.7606 0013935 239.0070 120.9783 14.95668194113881
AL-FARABI 2             
1 43805U 18099AZ  21003.79289923  .00000250  00000-0  27495-4 0  9990
2 43805  97.6836  77.9318 0014232 238.8868 121.0946 14.95832406113898
CENTAURI-1              
1 43809U 18099BD  21003.78424877 -.00000055  00000-0  21661-6 0  9997
2 43809  97.6849  78.0453 0014045 240.1285 119.8541 14.95704453113581
PW-SAT2                 
1 43814U 18099BJ  21003.80823802  .00142318  00000-0  37043-2 0  9992
2 43814  97.7881  97.0253 0011514 241.5837 118.4247 15.38268084114154
CHOMPTT                 
1 43855U 18104G   21003.81241673  .00001338  00000-0  54169-4 0  9991
2 43855  85.0362  42.5935 0018682  40.0819 320.1798 15.23473182114020
DAVINCI                 
1 43857U 18104J   21003.85532187  .00003220  00000-0  13051-3 0  9996
2 43857  85.0317  42.6261 0017194  64.4746 295.8272 15.24084606114004
